IRIDIUM 144             
1 43249U 18030A   25216.55128980  .00000039  00000+0  70226-5 0  9991
2 43249  86.3919  62.7724 0002146  91.5777 268.5665 14.34217300384757
IRIDIUM 149             
1 43250U 18030B   25216.48786363  .00000005  00000+0 -53874-5 0  9994
2 43250  86.3917  62.7692 0001992  91.5642 268.5782 14.34217408384760
IRIDIUM 157             
1 43251U 18030C   25216.57666022  .00000019  00000+0 -39635-6 0  9999
2 43251  86.3919  62.7782 0002219  85.0058 275.1391 14.34217575384759
IRIDIUM 140             
1 43252U 18030D   25216.52591893  .00000031  00000+0  39618-5 0  9991
2 43252  86.3921  62.8131 0001996  90.7285 269.4139 14.34217596384803
IRIDIUM 145             
1 43253U 18030E   25216.58300238  .00000028  00000+0  28193-5 0  9991
2 43253  86.3920  62.7619 0002083  99.4808 260.6623 14.34217594384740
IRIDIUM 146             
1 43254U 18030F   25216.56397420  .00000008  00000+0 -43482-5 0  9996
2 43254  86.3919  62.7832 0001956  98.6412 261.5006 14.34217552384756
IRIDIUM 148             
1 43255U 18030G   25216.53226221  .00000023  00000+0  12720-5 0  9991
2 43255  86.3922  62.8348 0002288  90.2280 269.9178 14.34217562384780
IRIDIUM 142             
1 43256U 18030H   25216.57031735  .00000033  00000+0  48754-5 0  9997
2 43256  86.3918  62.7194 0002161 101.8450 258.2988 14.34217620384754
